GLOBALSTAR M023 [+]     
1 25621U 99004A   24021.90690547 -.00000052  00000+0  28652-3 0  9990
2 25621  52.0089 173.2686 0011084  76.4216  94.0783 12.62443814151020
GLOBALSTAR M040 [-]     
1 25622U 99004B   24021.92215591 -.00000061  00000+0  24030-3 0  9991
2 25622  51.9898 176.6281 0001077  60.1748 111.7834 12.61965473150578
GLOBALSTAR M036 [-]     
1 25623U 99004C   24022.36864292 -.00000079  00000+0  49212-4 0  9998
2 25623  51.9954 149.3111 0012206 149.1908 225.5384 11.86559175118205
GLOBALSTAR M038 [-]     
1 25624U 99004D   24021.96508872 -.00000079  00000+0  13291-3 0  9990
2 25624  51.9974 106.6655 0002278  83.9393 324.3158 12.32491813139215
GLOBALSTAR M041 [-]     
1 25650U 99012B   24022.44295858 -.00000057  00000+0  36062-3 0  9996
2 25650  52.0020 107.8763 0002154  48.5502 311.5519 11.96653517117263
GLOBALSTAR M046 [-]     
1 25651U 99012C   24022.49596333  .00000027  00000+0  12737-2 0  9992
2 25651  52.0022 210.6937 0001511 343.3510  32.3696 12.09384123122105
GLOBALSTAR M037 [+]     
1 25652U 99012D   24022.08606927 -.00000071  00000+0  18475-3 0  9995
2 25652  52.0018 303.5424 0002156 113.4848 348.8011 12.62393631146598
